ZHUHAI-1 02 (CAS-4B)    
1 42759U 17034B   23160.42127442  .00006884  00000+0  35016-3 0  9993
2 42759  43.0142 158.8558 0009698  46.6515 313.5140 15.17299825330453
ZHUHAI-1 01 (CAS-4A)    
1 42761U 17034D   23160.43740713  .00007003  00000+0  35591-3 0  9991
2 42761  43.0130 157.2968 0010520  49.0941 311.0817 15.17300130330464
MAX VALIER SAT          
1 42778U 17036P   23159.90728626  .00024958  00000+0  65724-3 0  9999
2 42778  97.1553 194.9490 0010425 126.3403 233.8807 15.38467707331452
RADFXSAT (FOX-1B)       
1 43017U 17073E   23160.24107472  .00007867  00000+0  54649-3 0  9990
2 43017  97.6313  44.8933 0235482  95.5007 267.3116 14.85968916300003
FOX-1D (AO-92)          
1 43137U 18004AC  23159.91277693  .00034697  00000+0  72304-3 0  9992
2 43137  97.3280 239.0180 0006691 160.8143 199.3359 15.45482645301026
DIWATA-2B               
1 43678U 18084H   23160.48353706  .00001894  00000+0  18595-3 0  9999
2 43678  98.0221 304.2982 0009561 179.0953 181.0285 14.93403787251116
ES'HAIL 2               
1 43700U 18090A   23159.33504192  .00000144  00000+0  00000+0 0  9996
2 43700   0.0171  13.2974 0001827  95.6352 293.9287  1.00271357 16596
FOX-1CLIFF (AO-95)      
1 43770U 18099N   23160.41953682  .00004501  00000+0  36829-3 0  9998
2 43770  97.5710 222.1696 0012769 159.1263 201.0485 14.99760873246446
ITASAT 1                
1 43786U 18099AE  23159.75273385  .00003956  00000+0  32681-3 0  9990
2 43786  97.5754 222.5536 0013582 148.4429 211.7612 14.99445333246381
JY1SAT (JO-97)          
1 43803U 18099AX  23160.11466133  .00005985  00000+0  47545-3 0  9996
2 43803  97.5692 222.8892 0014454 118.0782 242.1905 15.00749020246481
UWE-4                   
1 43880U 18111E   23160.29675188  .00005875  00000+0  45025-3 0  9996
2 43880  97.6309  65.5997 0017662 197.3631 162.6992 15.02090579241181
NEXUS (FO-99)           
1 43937U 19003F   23159.52781083  .00051123  00000+0  84559-3 0  9998
2 43937  97.0855 186.8480 0009202 308.3117  51.7308 15.52007736244700
JAISAT-1                
1 44419U 19038F   23159.92076731  .00024735  00000+0  85259-3 0  9990
2 44419  97.6734 141.3693 0013206 340.3357  19.7372 15.29919063217277
DUCHIFAT-3              
1 44854U 19089C   23160.31798105  .00007158  00000+0  48448-3 0  9999
2 44854  36.9609 138.3121 0010458 253.2082 106.7515 15.06119850191641
CAS-6 (TIANQIN 1)       
1 44881U 19093C   23160.46750570  .00001079  00000+0  14059-3 0  9991
2 44881  97.8617 239.0499 0016164 102.5832 257.7190 14.82520455187654
RS-44 & BREEZE-KM R/B   
1 44909U 19096E   23160.01330984  .00000014  00000+0  14744-4 0  9999
2 44909  82.5217 353.3784 0216942 205.8365 153.1776 12.79721030161166
BY70-2                  
1 45857U 20042B   23160.42183138  .00016967  00000+0  17531-2 0  9996
2 45857  97.9247 240.2945 0008434  43.5701 316.6182 14.90175831158385
SALSAT                  
1 46495U 20068K   23159.36023772  .00003869  00000+0  25740-3 0  9990
2 46495  97.7696 107.2707 0016577 144.8363 215.3962 15.07651702147748
RADFXSAT-2 (AO-109)     
1 47311U 21002C   23160.25116426  .00023937  00000+0  62745-3 0  9990
2 47311  60.6809  89.0405 0013444 173.5088 186.6184 15.38576614133075
UVSQ-SAT                
1 47438U 21006AB  23159.95658918  .00015929  00000+0  65563-3 0  9999
2 47438  97.3841 217.1831 0011542 110.9467 249.3007 15.24149211131396
DIY-1 (ARDUIQUBE)       
1 47963U 21022AH  23160.23934581  .00230383  00000+0  29020-2 0  9996
2 47963  97.4955  68.4297 0002440  70.2229 289.9290 15.58842673121358
XW-3 (CAS-9)            
1 50466U 21131B   23160.45117873  .00000648  00000+0  22482-3 0  9995
2 50466  98.5519 242.0199 0004938 150.1829 209.9641 14.38912576 76243
TEVEL-3                 
1 50988U 22002E   23160.43621278  .00017710  00000+0  71553-3 0  9990
2 50988  97.4330 227.4558 0006468 252.8278 107.2251 15.24796177 77583
TEVEL-8                 
1 50989U 22002F   23160.45462582  .00018414  00000+0  74521-3 0  9994
2 50989  97.4347 227.5324 0006513 251.8315 108.2213 15.24731039 77581
TEVEL-5                 
1 50998U 22002Q   23160.45058316  .00018995  00000+0  74856-3 0  9995
2 50998  97.4324 227.8443 0007740 247.3116 112.7304 15.25608066 77612
TEVEL-6                 
1 50999U 22002R   23160.44910673  .00018673  00000+0  73596-3 0  9991
2 50999  97.4322 227.8376 0007751 247.1049 112.9371 15.25607628 77610
TEVEL-1                 
1 51013U 22002AF  23160.31452837  .00017707  00000+0  71647-3 0  9990
2 51013  97.4324 227.2791 0006375 252.5723 107.4817 15.24746093 77562
TEVEL-7                 
1 51062U 22002CG  23160.45571283  .00017927  00000+0  72528-3 0  9999
2 51062  97.4341 227.5069 0006506 251.0287 109.0246 15.24747121 77580
TEVEL-4                 
1 51063U 22002CH  23160.46153131  .00018045  00000+0  73113-3 0  9992
2 51063  97.4341 227.4968 0006508 251.1740 108.8791 15.24696173 77587
TEVEL-2                 
1 51069U 22002CP  23160.37242870  .00018074  00000+0  73015-3 0  9990
2 51069  97.4327 227.3642 0006447 252.6001 107.4532 15.24796105 77576
GREENCUBE               
1 53106U 22080B   23156.84588440 -.00000003  00000+0  00000+0 0  9997
2 53106  70.1624 323.6621 0008403 187.6285 172.4247  6.42557080 21021
RS29S (SXC3-2110 CYCLO*)
1 53373U 22096D   23160.39946020  .00027182  00000+0  71583-3 0  9991
2 53373  97.4137  66.6076 0002901 114.3897 245.7652 15.38504433 46490
RS32S (SXC3-212 MONITO*)
1 53374U 22096E   23160.42941377  .00027020  00000+0  73072-3 0  9992
2 53374  97.4117  66.5287 0003323 119.1964 240.9614 15.37682860 46494
RS34S (SXC3-218 KUZBAS*)
1 53375U 22096F   23160.44080516  .00022183  00000+0  63809-3 0  9996
2 53375  97.4143  66.2511 0003204 116.5298 243.6274 15.35798516 46474
RS23S (SXC3-21 UTMN)    
1 53376U 22096G   23160.40081189  .00023131  00000+0  65430-3 0  9996
2 53376  97.4138  66.2979 0002986 113.8849 246.2708 15.36316794 46471
RS28S (SXC3-214 MIET-A*)
1 53377U 22096H   23160.44851025  .00019811  00000+0  57750-3 0  9991
2 53377  97.4149  66.2479 0003150 116.6207 243.5360 15.35403545 46476
RS26S (KAI-1)           
1 53378U 22096J   23160.41499282  .00017646  00000+0  53807-3 0  9995
2 53378  97.4163  66.0020 0003038 113.1575 246.9988 15.34005926 46459
RS19S (SXC3-219 ISOI)   
1 53381U 22096M   23160.40035160  .00020586  00000+0  58464-3 0  9990
2 53381  97.4138  66.4466 0005654  92.8409 267.3481 15.36203930 46483
RS21S (CUBESX-HSE-2)    
1 53383U 22096P   23160.44046382  .00022622  00000+0  63338-3 0  9993
2 53383  97.4142  66.5566 0006133  92.7000 267.4947 15.36627468 46496
RS30S (SXC3-217 SIREN)  
1 53384U 22096Q   23160.39946205  .00019173  00000+0  56315-3 0  9995
2 53384  97.4154  66.3187 0006048  89.5412 270.6524 15.35159133 46476
RS20S (GEOSCAN-EDELVEIS)
1 53385U 22096R   23160.43878025  .00030308  00000+0  75793-3 0  9999
2 53385  97.4131  67.1476 0006365  91.1965 269.0010 15.40052023 46564
RS33S (SXC3-215 VIZARD) 
1 53386U 22096S   23160.43648328  .00039428  00000+0  87555-3 0  9992
2 53386  97.4126  67.7571 0007045  90.9036 269.3019 15.43573336 46596
CAS-5A (FO-118)         
1 54684U 22167C   23160.40925868  .00010530  00000+0  58453-3 0  9995
2 54684  97.5617 298.0414 0013220   6.9493 353.1919 15.13852369 27509
